ONEWEB-0387             
1 49313U 21090AL  23291.49900828  .00001250  00000+0  30415-2 0  9991
2 49313  87.9149 108.1489 0001572 103.4816 256.6493 13.20767584102730
ONEWEB-0388             
1 49314U 21090AM  23291.83001204 -.00000010  00000+0 -56481-4 0  9998
2 49314  87.9200 138.5117 0001756  80.5565 279.5766 13.19727696 98160
ONEWEB-0389             
1 50469U 21132A   23292.13911842  .00000074  00000+0  15621-3 0  9998
2 50469  87.9265 199.0399 0001557  90.3454 269.7855 13.17650131 91365
ONEWEB-0390             
1 50470U 21132B   23292.14121175 -.00006769  00000+0 -17471-1 0  9995
2 50470  87.9267 199.0466 0001421  63.3637 296.7640 13.17682401 91364
ONEWEB-0391             
1 50471U 21132C   23291.68771494  .00000100  00000+0  22329-3 0  9990
2 50471  87.9266 199.1066 0001732  82.9287 277.2042 13.17647913 90014
ONEWEB-0392             
1 50472U 21132D   23292.17285913 -.00000393  00000+0 -10441-2 0  9999
2 50472  87.9251 199.0460 0001574  84.9235 275.2076 13.17649891 91401
ONEWEB-0393             
1 50473U 21132E   23291.49892948  .00000092  00000+0  20407-3 0  9994
2 50473  87.9258 199.1472 0001501  72.9988 287.1308 13.17651593 91306
ONEWEB-0394             
1 50474U 21132F   23291.89223036  .00000087  00000+0  18714-3 0  9997
2 50474  87.9271 168.8465 0001703  81.4024 278.7301 13.18687518 93451
ONEWEB-0395             
1 50475U 21132G   23291.53618027  .00000202  00000+0  53389-3 0  9993
2 50475  87.8996 214.3233 0001675  84.2701 275.8618 13.11417677 88235
ONEWEB-0396             
1 50476U 21132H   23291.96178568  .00000024  00000+0  27642-4 0  9998
2 50476  87.9269 168.8246 0001768  82.5271 277.6062 13.18681706 93505
ONEWEB-0397             
1 50477U 21132J   23291.90065856  .00000011  00000+0 -57917-5 0  9994
2 50477  87.9271 168.8378 0001788  86.2939 273.8397 13.18687295 94744
ONEWEB-0398             
1 50478U 21132K   23291.73261272 -.00000388  00000+0 -11298-2 0  9993
2 50478  87.8991 214.2772 0001291  77.1919 282.9353 13.11411524 88157
ONEWEB-0399             
1 50479U 21132L   23291.48911788  .00000179  00000+0  46890-3 0  9993
2 50479  87.8990 214.3363 0002260  79.1947 280.9435 13.11416353 89395
ONEWEB-0400             
1 50480U 21132M   23291.42431034 -.00000446  00000+0 -11632-2 0  9994
2 50480  87.9195 168.9423 0001601  71.2353 288.8953 13.18685609 94687
ONEWEB-0401             
1 50481U 21132N   23291.92173029  .00000023  00000+0  25323-4 0  9990
2 50481  87.9268 168.8411 0002063  77.3519 282.7844 13.18684243 93470
ONEWEB-0402             
1 50482U 21132P   23291.96391149  .00005394  00000+0  13647-1 0  9999
2 50482  87.9195 168.8360 0002459  64.1937 295.9448 13.18656752 93504
ONEWEB-0403             
1 50483U 21132Q   23292.13882879  .00000181  00000+0  42695-3 0  9991
2 50483  87.9245 168.7988 0001956  83.1638 276.9716 13.18684701 94767
ONEWEB-0404             
1 50484U 21132R   23292.15793670 -.00004351  00000+0 -12313-1 0  9991
2 50484  87.8982 214.1608 0002589 111.8249 248.3154 13.11437951 89567
ONEWEB-0405             
1 50485U 21132S   23291.94198027  .00000028  00000+0  38620-4 0  9990
2 50485  87.9271 168.8334 0002144  77.1393 282.9979 13.19203363 93854
ONEWEB-0406             
1 50486U 21132T   23291.91540610  .00000045  00000+0  80360-4 0  9994
2 50486  87.9268 168.8422 0001706  93.2165 266.9162 13.18684937 93482
ONEWEB-0407             
1 50487U 21132U   23291.90909128  .00000117  00000+0  26349-3 0  9993
2 50487  87.9271 168.8515 0001869  79.2241 280.9101 13.18686477 93423
ONEWEB-0409             
1 50488U 21132V   23292.15629139  .00000576  00000+0  15888-2 0  9997
2 50488  87.8995 214.1764 0001624  96.8348 263.2965 13.11418393 89463
ONEWEB-0412             
1 50489U 21132W   23291.89855379  .00000020  00000+0  18457-4 0  9996
2 50489  87.9212 168.8506 0002285  76.9030 283.2357 13.18686789 94799
ONEWEB-0413             
1 50490U 21132X   23291.90276847  .00000129  00000+0  29437-3 0  9996
2 50490  87.9276 168.8546 0002115  73.8398 286.2966 13.18686135 93456
ONEWEB-0414             
1 50491U 21132Y   23292.19257370 -.00000008  00000+0 -51750-4 0  9991
2 50491  87.9266 168.7856 0002066  84.6593 275.4775 13.18685235 94810
ONEWEB-0417             
1 50492U 21132Z   23291.89643717 -.00000348  00000+0 -91477-3 0  9998
2 50492  87.9211 168.8647 0001532  86.8748 273.2559 13.18685452 93460
ONEWEB-0418             
1 50493U 21132AA  23291.91014480  .00000015  00000+0  58999-5 0  9994
2 50493  87.9273 168.8413 0001516  97.8196 262.3108 13.18685144 93525
ONEWEB-0419             
1 50494U 21132AB  23291.92383781  .00000052  00000+0  98339-4 0  9991
2 50494  87.9269 168.8628 0001289  81.4552 278.6726 13.18682086 93440
ONEWEB-0420             
1 50495U 21132AC  23291.35899050 -.00000735  00000+0 -18975-2 0  9996
2 50495  87.9254 168.9796 0002278  62.7808 297.3556 13.18681962 94663
ONEWEB-0421             
1 50496U 21132AD  23291.95967371  .00000077  00000+0  16191-3 0  9991
2 50496  87.9212 168.8416 0002175  80.3064 279.8314 13.18687047 93488
ONEWEB-0424             
1 50497U 21132AE  23291.91962036 -.00000005  00000+0 -46468-4 0  9995
2 50497  87.9191 168.8397 0001125  70.2866 289.8388 13.18688821 93501
ONEWEB-0426             
1 50498U 21132AF  23291.95755351  .00001925  00000+0  48482-2 0  9996
2 50498  87.9267 168.8555 0003671 107.7075 252.4458 13.18694605 93453
ONEWEB-0427             
1 50499U 21132AG  23291.91751394 -.00000324  00000+0 -85548-3 0  9995
2 50499  87.9197 168.8440 0001523  87.6647 272.4660 13.18685626 93476
ONEWEB-0429             
1 50500U 21132AH  23291.90487624 -.00000024  00000+0 -92953-4 0  9995
2 50500  87.9257 168.8466 0001678  70.8513 289.2800 13.18682271 93443
ONEWEB-0430             
1 50501U 21132AJ  23291.89433570  .00000008  00000+0 -11824-4 0  9994
2 50501  87.9274 168.8472 0001497  72.0793 288.0502 13.18682738 94774
ONEWEB-0432             
1 50502U 21132AK  23291.92595167 -.00000069  00000+0 -20837-3 0  9991
2 50502  87.9193 168.8391 0001604  73.6919 286.4390 13.18686935 93445
ONEWEB-0440             
1 50503U 21132AL  23291.91330080  .00000033  00000+0  51353-4 0  9999
2 50503  87.9201 168.8568 0002351  75.7061 284.4333 13.18684558 93436
ONEWEB-0450             
1 50504U 21132AM  23291.90698588  .00000031  00000+0  45433-4 0  9999
2 50504  87.9244 168.8721 0001789  63.0106 297.1208 13.18687097 93465
ONEWEB-0410             
1 51622U 22012A   23291.47467379 -.00000014  00000+0 -68143-4 0  9999
2 51622  87.9195 199.1940 0002215 108.6057 251.5315 13.17649697 86893
ONEWEB-0411             
1 51623U 22012B   23292.05857890  .00000465  00000+0  12963-2 0  9991
2 51623  87.8898 229.2940 0001573  73.6810 286.4490 13.10371668 83253
ONEWEB-0415             
1 51624U 22012C   23291.59718927 -.00000855  00000+0 -24869-2 0  9990
2 51624  87.8899 229.4131 0001880  70.0996 290.0334 13.10378199 81911
ONEWEB-0416             
1 51625U 22012D   23291.53219084  .00000014  00000+0  48500-5 0  9991
2 51625  87.8896 229.4128 0001973  73.9699 286.1645 13.10370666 81945
ONEWEB-0422             
1 51626U 22012E   23291.48310846 -.00000352  00000+0 -94018-3 0  9994
2 51626  87.9193 199.1870 0002418  58.9761 301.1608 13.17649688 86999
ONEWEB-0423             
1 51627U 22012F   23292.16022033  .00000093  00000+0  20722-3 0  9990
2 51627  87.9258 199.0218 0001927  74.7615 285.3730 13.17649045 86980
ONEWEB-0425             
1 51628U 22012G   23291.54193182 -.00000361  00000+0 -10697-2 0  9995
2 51628  87.8893 229.4028 0002353  85.4000 274.7396 13.10369843 81942
ONEWEB-0428             
1 51629U 22012H   23291.59880793  .00000439  00000+0  12213-2 0  9992
2 51629  87.8895 229.4028 0001984  65.4340 294.6994 13.10372422 81918
ONEWEB-0431             
1 51630U 22012J   23291.56778774 -.00000238  00000+0 -71763-3 0  9991
2 51630  87.8912 229.4128 0001543  54.4589 305.6682 13.10369416 81966
ONEWEB-0434             
1 51631U 22012K   23292.07968830 -.00000440  00000+0 -12971-2 0  9993
2 51631  87.8900 229.3180 0002095  73.4129 286.7228 13.10367913 83300
ONEWEB-0435             
1 51632U 22012L   23291.55329901 -.00000607  00000+0 -17739-2 0  9998
2 51632  87.8902 229.4127 0002157  65.2040 294.9312 13.10370948 81939
ONEWEB-0436             
1 51633U 22012M   23292.15387890 -.00000232  00000+0 -63182-3 0  9995
2 51633  87.9198 199.0488 0001938  68.9806 291.1532 13.17650529 86960
ONEWEB-0438             
1 51634U 22012N   23291.53707716 -.00000146  00000+0 -45505-3 0  9993
2 51634  87.8894 229.4168 0002064  79.2550 280.8810 13.10366022 81962
ONEWEB-0439             
1 51635U 22012P   23291.54031338  .00000426  00000+0  11853-2 0  9992
2 51635  87.8897 229.3989 0002028  75.0654 285.0698 13.10367370 81941
ONEWEB-0442             
1 51636U 22012Q   23291.68982695  .00000019  00000+0  14942-4 0  9991
2 51636  87.9258 199.1566 0001567 103.8486 256.2820 13.17648357 85607
ONEWEB-0443             
1 51637U 22012R   23292.16443133  .00000056  00000+0  11061-3 0  9994
2 51637  87.9257 199.0682 0002410  68.9461 291.1928 13.17650403 87005
ONEWEB-0444             
1 51638U 22012S   23291.53057070  .00000197  00000+0  52888-3 0  9994
2 51638  87.8895 229.4289 0002056  72.2666 287.8686 13.10369196 81955
ONEWEB-0445             
1 51639U 22012T   23291.55167364 -.00000652  00000+0 -19035-2 0  9999
2 51639  87.8906 229.4107 0001664  86.5528 273.5789 13.10372745 81968
ONEWEB-0446             
1 51640U 22012U   23291.52894347  .00000261  00000+0  71052-3 0  9998
2 51640  87.8896 229.4207 0001748  76.2940 283.8382 13.10369833 81941
ONEWEB-0448             
1 51641U 22012V   23292.06831482  .00011559  00000+0  33065-1 0  9992
2 51641  87.8899 229.3153 0001299  89.5912 270.5364 13.10310248 83278
ONEWEB-0449             
1 51642U 22012W   23292.07318795 -.00000179  00000+0 -54869-3 0  9996
2 51642  87.8899 229.3179 0002008  82.2186 277.9170 13.10372899 83297
